{
  "norad_id": 65820,
  "name": "HULIANWANG DIGUI-85",
  "history": [
    {
      "epoch": "2026-05-03T20:53:00.700800Z",
      "apogee_km": 1169.4836221507521,
      "perigee_km": 1166.4138744683405,
      "latitude_deg": 1.408303727251869e-06,
      "longitude_deg": -116.17545316881866,
      "height_km": 1170.0765660657237,
      "semi_major_axis_km": 7546.085748309546,
      "eccentricity": 0.0002034,
      "inclination_deg": 86.4996,
      "raan_deg": 58.8451,
      "arg_perigee_deg": 60.1699,
      "mean_anomaly_deg": 299.9637,
      "mean_motion_rev_day": 13.24403007
    },
    {
      "epoch": "2026-05-04T18:38:29.605056Z",
      "apogee_km": 1169.4643960079138,
      "perigee_km": 1166.4323788992342,
      "latitude_deg": 1.2615233967204702e-05,
      "longitude_deg": -83.7452605512712,
      "height_km": 1170.078477706376,
      "semi_major_axis_km": 7546.085387453573,
      "eccentricity": 0.0002009,
      "inclination_deg": 86.4997,
      "raan_deg": 58.5393,
      "arg_perigee_deg": 59.8575,
      "mean_anomaly_deg": 300.2758,
      "mean_motion_rev_day": 13.24403102
    },
    {
      "epoch": "2026-05-05T18:12:45.898848Z",
      "apogee_km": 1169.448081922259,
      "perigee_km": 1166.4477585579716,
      "latitude_deg": -7.025400901466001e-05,
      "longitude_deg": -78.61239460577582,
      "height_km": 1170.0849311440334,
      "semi_major_axis_km": 7546.084920240115,
      "eccentricity": 0.0001988,
      "inclination_deg": 86.4997,
      "raan_deg": 58.2081,
      "arg_perigee_deg": 59.8096,
      "mean_anomaly_deg": 300.3234,
      "mean_motion_rev_day": 13.24403225
    }
  ]
}